API VERSION: 1.2
API SOURCE: NASA/JPL Horizons API



*******************************************************************************
Ephemeris / API_USER Sun Dec 22 21:43:42 2024 Pasadena, USA      / Horizons
*******************************************************************************
Target body name: Mars Barycenter (4)             {source: DE441}
Center body name: Solar System Barycenter (0)     {source: DE441}
Center-site name: BODY CENTER
*******************************************************************************
Start time      : A.D. 2001-Dec-31 00:00:00.0000 TDB
Stop  time      : A.D. 2002-Oct-10 00:00:00.0000 TDB
Step-size       : 1440 minutes
*******************************************************************************
Center geodetic : 0.0, 0.0, 0.0                   {E-lon(deg),Lat(deg),Alt(km)}
Center cylindric: 0.0, 0.0, 0.0                   {E-lon(deg),Dxy(km),Dz(km)}
Center radii    : (undefined)
Output units    : KM-S
Calendar mode   : Mixed Julian/Gregorian
Output type     : GEOMETRIC cartesian states
Output format   : 2 (position and velocity)
Reference frame : Ecliptic of J2000.0
*******************************************************************************
            JDTDB,            Calendar Date (TDB),                      X,                      Y,                      Z,                     VX,                     VY,                     VZ,
**************************************************************************************************************************************************************************************************
$$SOE
2452274.500000000, A.D. 2001-Dec-31 00:00:00.0000,  1.920008977789607E+08,  9.095499206222349E+07, -2.789224368149649E+06, -9.494059430726432E+00,  2.393125273728468E+01,  7.345870773575438E-01,
2452275.500000000, A.D. 2002-Jan-01 00:00:00.0000,  1.911707837850864E+08,  9.301791883248232E+07, -2.725613710134409E+06, -9.721298517515063E+00,  2.382131301628594E+01,  7.378681429643184E-01,
2452276.500000000, A.D. 2002-Jan-02 00:00:00.0000,  1.903210998318083E+08,  9.507125156347351E+07, -2.661723123837117E+06, -9.947064122748564E+00,  2.370917233099521E+01,  7.410668899007984E-01,
2452277.500000000, A.D. 2002-Jan-03 00:00:00.0000,  1.894519741620981E+08,  9.711480108902901E+07, -2.597559723662656E+06, -1.017133469268474E+01,  2.359485379622406E+01,  7.441832726266355E-01,
2452278.500000000, A.D. 2002-Jan-04 00:00:00.0000,  1.885635368628995E+08,  9.914838024845408E+07, -2.533130627326503E+06, -1.039408909663136E+01,  2.347838071871009E+01,  7.472172600199656E-01,
2452279.500000000, A.D. 2002-Jan-05 00:00:00.0000,  1.876559198285525E+08,  1.011718039027360E+08, -2.468442954616174E+06, -1.061530662747731E+01,  2.335977658847361E+01,  7.501688352104079E-01,
2452280.500000000, A.D. 2002-Jan-06 00:00:00.0000,  1.867292567241798E+08,  1.031848889500081E+08, -2.403503826167300E+06, -1.083496700203056E+01,  2.323906507022647E+01,  7.530379954073911E-01,
2452281.500000000, A.D. 2002-Jan-07 00:00:00.0000,  1.857836829490527E+08,  1.051874543402741E+08, -2.338320362254694E+06, -1.105305036116869E+01,  2.311626999483875E+01,  7.558247517243775E-01,
2452282.500000000, A.D. 2002-Jan-08 00:00:00.0000,  1.848193355999511E+08,  1.071793210893978E+08, -2.272899681598730E+06, -1.126953726980759E+01,  2.299141535086909E+01,  7.585291289995144E-01,
2452283.500000000, A.D. 2002-Jan-09 00:00:00.0000,  1.838363534345350E+08,  1.091603122923638E+08, -2.207248900187448E+06, -1.148440871669303E+01,  2.286452527616389E+01,  7.611511656132386E-01,
2452284.500000000, A.D. 2002-Jan-10 00:00:00.0000,  1.828348768347399E+08,  1.111302531358160E+08, -2.141375130114421E+06, -1.169764611401942E+01,  2.273562404953046E+01,  7.636909133031562E-01,
2452285.500000000, A.D. 2002-Jan-11 00:00:00.0000,  1.818150477702143E+08,  1.130889709098794E+08, -2.075285478432797E+06, -1.190923129687966E+01,  2.260473608248881E+01,  7.661484369765788E-01,
2452286.500000000, A.D. 2002-Jan-12 00:00:00.0000,  1.807770097618106E+08,  1.150362950192732E+08, -2.008987046025656E+06, -1.211914652254944E+01,  2.247188591110649E+01,  7.685238145210143E-01,
2452287.500000000, A.D. 2002-Jan-13 00:00:00.0000,  1.797209078451452E+08,  1.169720569937225E+08, -1.942486926492691E+06, -1.232737446960954E+01,  2.233709818792062E+01,  7.708171366127701E-01,
2452288.500000000, A.D. 2002-Jan-14 00:00:00.0000,  1.786468885342416E+08,  1.188960904976748E+08, -1.875792205053680E+06, -1.253389823690871E+01,  2.220039767395094E+01,  7.730285065239517E-01,
2452289.500000000, A.D. 2002-Jan-15 00:00:00.0000,  1.775550997852693E+08,  1.208082313393319E+08, -1.808909957468487E+06, -1.273870134237037E+01,  2.206180923080736E+01,  7.751580399278870E-01,
2452290.500000000, A.D. 2002-Jan-16 00:00:00.0000,  1.764456909603937E+08,  1.227083174790033E+08, -1.741847248974167E+06, -1.294176772164579E+01,  2.192135781289516E+01,  7.772058647032249E-01,
2452291.500000000, A.D. 2002-Jan-17 00:00:00.0000,  1.753188127917470E+08,  1.245961890367903E+08, -1.674611133238882E+06, -1.314308172661647E+01,  2.177906845972086E+01,  7.791721207366766E-01,
2452292.500000000, A.D. 2002-Jan-18 00:00:00.0000,  1.741746173455364E+08,  1.264716882996104E+08, -1.607208651332930E+06, -1.334262812374885E+01,  2.163496628830124E+01,  7.810569597245207E-01,
2452293.500000000, A.D. 2002-Jan-19 00:00:00.0000,  1.730132579863006E+08,  1.283346597275699E+08, -1.539646830717124E+06, -1.354039209230424E+01,  2.148907648567791E+01,  7.828605449729240E-01,
2452294.500000000, A.D. 2002-Jan-20 00:00:00.0000,  1.718348893413261E+08,  1.301849499596947E+08, -1.471932684248269E+06, -1.373635922240724E+01,  2.134142430153925E+01,  7.845830511970950E-01,
2452295.500000000, A.D. 2002-Jan-21 00:00:00.0000,  1.706396672652376E+08,  1.320224078190279E+08, -1.404073209202170E+06, -1.393051551297634E+01,  2.119203504095162E+01,  7.862246643193158E-01,
2452296.500000000, A.D. 2002-Jan-22 00:00:00.0000,  1.694277488047718E+08,  1.338468843171045E+08, -1.336075386314109E+06, -1.412284736952064E+01,  2.104093405720092E+01,  7.877855812658785E-01,
2452297.500000000, A.D. 2002-Jan-23 00:00:00.0000,  1.681992921637488E+08,  1.356582326578127E+08, -1.267946178836934E+06, -1.431334160180700E+01,  2.088814674474585E+01,  7.892660097630104E-01,
2452298.500000000, A.D. 2002-Jan-24 00:00:00.0000,  1.669544566682484E+08,  1.374563082406501E+08, -1.199692531616740E+06, -1.450198542140266E+01,  2.073369853228342E+01,  7.906661681317431E-01,
2452299.500000000, A.D. 2002-Jan-25 00:00:00.0000,  1.656934027320058E+08,  1.392409686633872E+08, -1.131321370186396E+06, -1.468876643909885E+01,  2.057761487592725E+01,  7.919862850819390E-01,
2452300.500000000, A.D. 2002-Jan-26 00:00:00.0000,  1.644162918220338E+08,  1.410120737241451E+08, -1.062839599876925E+06, -1.487367266222149E+01,  2.041992125249875E+01,  7.932265995054424E-01,
2452301.500000000, A.D. 2002-Jan-27 00:00:00.0000,  1.631232864244822E+08,  1.427694854228989E+08, -9.942541049466580E+05, -1.505669249183608E+01,  2.026064315293096E+01,  7.943873602685834E-01,
2452302.500000000, A.D. 2002-Jan-28 00:00:00.0000,  1.618145500107429E+08,  1.445130679624161E+08, -9.255717477284744E+05, -1.523781471985437E+01,  2.009980607578474E+01,  7.954688260041127E-01,
2452303.500000000, A.D. 2002-Jan-29 00:00:00.0000,  1.604902470038092E+08,  1.462426877486398E+08, -8.567993677950129E+05, -1.541702852605153E+01,  1.993743552087630E+01,  7.964712649028556E-01,
2452304.500000000, A.D. 2002-Jan-30 00:00:00.0000,  1.591505427448962E+08,  1.479582133905253E+08, -7.879437811418027E+05, -1.559432347500349E+01,  1.977355698301499E+01,  7.973949545052657E-01,
2452305.500000000, A.D. 2002-Jan-31 00:00:00.0000,  1.577956034603353E+08,  1.496595156993497E+08, -7.190117793877125E+05, -1.576968951274941E+01,  1.960819594609777E+01,  7.982401815131164E-01,
2452306.500000000, A.D. 2002-Feb-01 00:00:00.0000,  1.564255962287532E+08,  1.513464676875015E+08, -6.500101289933324E+05, -1.594311696368233E+01,  1.944137787683658E+01,  7.990072415551950E-01,
2452307.500000000, A.D. 2002-Feb-02 00:00:00.0000,  1.550406889485279E+08,  1.530189445667451E+08, -5.809455704980046E+05, -1.611459652710667E+01,  1.927312821905184E+01,  7.996964389985122E-01,
2452308.500000000, A.D. 2002-Feb-03 00:00:00.0000,  1.536410503055441E+08,  1.546768237459936E+08, -5.118248177738190E+05, -1.628411927380751E+01,  1.910347238789820E+01,  8.003080867394461E-01,
2452309.500000000, A.D. 2002-Feb-04 00:00:00.0000,  1.522268497412495E+08,  1.563199848285882E+08, -4.426545572974756E+05, -1.645167664252896E+01,  1.893243576424825E+01,  8.008425059994266E-01,
2452310.500000000, A.D. 2002-Feb-05 00:00:00.0000,  1.507982574210177E+08,  1.579483096090988E+08, -3.734414474398941E+05, -1.661726043637818E+01,  1.876004368920150E+01,  8.013000261214600E-01,
2452311.500000000, A.D. 2002-Feb-06 00:00:00.0000,  1.493554442028249E+08,  1.595616820696540E+08, -3.041921177731305E+05, -1.678086281915867E+01,  1.858632145871903E+01,  8.016809843675450E-01,
2452312.500000000, A.D. 2002-Feb-07 00:00:00.0000,  1.478985816062468E+08,  1.611599883758149E+08, -2.349131683950052E+05, -1.694247631163654E+01,  1.841129431838375E+01,  8.019857257171417E-01,
2452313.500000000, A.D. 2002-Feb-08 00:00:00.0000,  1.464278417817809E+08,  1.627431168719997E+08, -1.656111692709476E+05, -1.710209378774350E+01,  1.823498745828641E+01,  8.022146026666936E-01,
2452314.500000000, A.D. 2002-Feb-09 00:00:00.0000,  1.449433974804985E+08,  1.643109580764732E+08, -9.629265959310532E+04, -1.725970847072001E+01,  1.805742600803723E+01,  8.023679750303616E-01,
2452315.500000000, A.D. 2002-Feb-10 00:00:00.0000,  1.434454220240337E+08,  1.658634046759103E+08, -2.696414715672284E+04, -1.741531392920231E+01,  1.787863503190304E+01,  8.024462097419889E-01,
2452316.500000000, A.D. 2002-Feb-11 00:00:00.0000,  1.419340892749118E+08,  1.674003515195448E+08,  4.236789224655181E+04, -1.756890407325661E+01,  1.769863952406961E+01,  8.024496806584329E-01,
